KUIPER-00112            
1 65150U 25171U   25261.53483414  .00033008  00000+0  93823-3 0  9992
2 65150  51.8750 221.4635 0004457 303.4952  56.5608 15.35855130  7085
KUIPER-00114            
1 65151U 25171V   25261.91668981 -.01093149  00000+0 -53026-1 0  9993
2 65151  51.8801 220.4433 0004408 278.2457 314.1716 15.21127490  4124
KUIPER-00115            
1 65152U 25171W   25261.52142207  .00038277  00000+0  10659-2 0  9993
2 65152  51.8729 221.3704 0004204 260.5817  99.4694 15.36424167  7086
KUIPER-00116            
1 65153U 25171X   25261.91668981 -.00770321  00000+0 -31772-1 0  9992
2 65153  51.8810 219.9026 0002831 290.0156 224.3995 15.26035504  4370
KUIPER-00118            
1 65154U 25171Y   25261.91668981 -.00385194  00000+0 -17753-1 0  9996
2 65154  51.8785 220.3254 0003568 278.9773  58.7532 15.21541979  4457
KUIPER-00119            
1 65155U 25171Z   25261.97172762  .00045838  00000+0  12684-2 0  9995
2 65155  51.8754 219.1413 0004810 249.5088 110.5382 15.36537537  7152
