<?xml version="1.0" encoding="UTF-8"?>
<ndm xmlns:xsi="http://www.w3.org/2001/XMLSchema-instance" xsi:noNamespaceSchemaLocation="https://sanaregistry.org/r/ndmxml_unqualified/ndmxml-2.0.0-master-2.0.xsd">
<omm id="CCSDS_OMM_VERS" version="2.0">
<header><CREATION_DATE/><ORIGINATOR/></header><body><segment><metadata><OBJECT_NAME>KUIPER-00112</OBJECT_NAME><OBJECT_ID>2025-171U</OBJECT_ID><CENTER_NAME>EARTH</CENTER_NAME><REF_FRAME>TEME</REF_FRAME><TIME_SYSTEM>UTC</TIME_SYSTEM><MEAN_ELEMENT_THEORY>SGP4</MEAN_ELEMENT_THEORY></metadata><data><meanElements><EPOCH>2025-09-18T12:50:09.669696</EPOCH><MEAN_MOTION>15.35855130</MEAN_MOTION><ECCENTRICITY>.0004457</ECCENTRICITY><INCLINATION>51.8750</INCLINATION><RA_OF_ASC_NODE>221.4635</RA_OF_ASC_NODE><ARG_OF_PERICENTER>303.4952</ARG_OF_PERICENTER><MEAN_ANOMALY>56.5608</MEAN_ANOMALY></meanElements><tleParameters><EPHEMERIS_TYPE>0</EPHEMERIS_TYPE><CLASSIFICATION_TYPE>U</CLASSIFICATION_TYPE><NORAD_CAT_ID>65150</NORAD_CAT_ID><ELEMENT_SET_NO>999</ELEMENT_SET_NO><REV_AT_EPOCH>708</REV_AT_EPOCH><BSTAR>.93822855E-3</BSTAR><MEAN_MOTION_DOT>.33008E-3</MEAN_MOTION_DOT><MEAN_MOTION_DDOT>0</MEAN_MOTION_DDOT></tleParameters></data></segment></body></omm>
<omm id="CCSDS_OMM_VERS" version="2.0">
<header><CREATION_DATE/><ORIGINATOR/></header><body><segment><metadata><OBJECT_NAME>KUIPER-00114</OBJECT_NAME><OBJECT_ID>2025-171V</OBJECT_ID><CENTER_NAME>EARTH</CENTER_NAME><REF_FRAME>TEME</REF_FRAME><TIME_SYSTEM>UTC</TIME_SYSTEM><MEAN_ELEMENT_THEORY>SGP4</MEAN_ELEMENT_THEORY></metadata><data><meanElements><EPOCH>2025-09-18T22:00:01.999584</EPOCH><MEAN_MOTION>15.21127490</MEAN_MOTION><ECCENTRICITY>.00044083</ECCENTRICITY><INCLINATION>51.8801</INCLINATION><RA_OF_ASC_NODE>220.4433</RA_OF_ASC_NODE><ARG_OF_PERICENTER>278.2457</ARG_OF_PERICENTER><MEAN_ANOMALY>314.1716</MEAN_ANOMALY></meanElements><tleParameters><EPHEMERIS_TYPE>0</EPHEMERIS_TYPE><CLASSIFICATION_TYPE>U</CLASSIFICATION_TYPE><NORAD_CAT_ID>65151</NORAD_CAT_ID><ELEMENT_SET_NO>999</ELEMENT_SET_NO><REV_AT_EPOCH>412</REV_AT_EPOCH><BSTAR>-.53026466E-1</BSTAR><MEAN_MOTION_DOT>-.1093149E-1</MEAN_MOTION_DOT><MEAN_MOTION_DDOT>0</MEAN_MOTION_DDOT></tleParameters></data></segment></body></omm>
<omm id="CCSDS_OMM_VERS" version="2.0">
<header><CREATION_DATE/><ORIGINATOR/></header><body><segment><metadata><OBJECT_NAME>KUIPER-00115</OBJECT_NAME><OBJECT_ID>2025-171W</OBJECT_ID><CENTER_NAME>EARTH</CENTER_NAME><REF_FRAME>TEME</REF_FRAME><TIME_SYSTEM>UTC</TIME_SYSTEM><MEAN_ELEMENT_THEORY>SGP4</MEAN_ELEMENT_THEORY></metadata><data><meanElements><EPOCH>2025-09-18T12:30:50.866848</EPOCH><MEAN_MOTION>15.36424167</MEAN_MOTION><ECCENTRICITY>.00042046</ECCENTRICITY><INCLINATION>51.8729</INCLINATION><RA_OF_ASC_NODE>221.3704</RA_OF_ASC_NODE><ARG_OF_PERICENTER>260.5817</ARG_OF_PERICENTER><MEAN_ANOMALY>99.4694</MEAN_ANOMALY></meanElements><tleParameters><EPHEMERIS_TYPE>0</EPHEMERIS_TYPE><CLASSIFICATION_TYPE>U</CLASSIFICATION_TYPE><NORAD_CAT_ID>65152</NORAD_CAT_ID><ELEMENT_SET_NO>999</ELEMENT_SET_NO><REV_AT_EPOCH>708</REV_AT_EPOCH><BSTAR>.1065919E-2</BSTAR><MEAN_MOTION_DOT>.38277E-3</MEAN_MOTION_DOT><MEAN_MOTION_DDOT>0</MEAN_MOTION_DDOT></tleParameters></data></segment></body></omm>
<omm id="CCSDS_OMM_VERS" version="2.0">
<header><CREATION_DATE/><ORIGINATOR/></header><body><segment><metadata><OBJECT_NAME>KUIPER-00116</OBJECT_NAME><OBJECT_ID>2025-171X</OBJECT_ID><CENTER_NAME>EARTH</CENTER_NAME><REF_FRAME>TEME</REF_FRAME><TIME_SYSTEM>UTC</TIME_SYSTEM><MEAN_ELEMENT_THEORY>SGP4</MEAN_ELEMENT_THEORY></metadata><data><meanElements><EPOCH>2025-09-18T22:00:01.999584</EPOCH><MEAN_MOTION>15.26035504</MEAN_MOTION><ECCENTRICITY>.00028314</ECCENTRICITY><INCLINATION>51.8810</INCLINATION><RA_OF_ASC_NODE>219.9026</RA_OF_ASC_NODE><ARG_OF_PERICENTER>290.0156</ARG_OF_PERICENTER><MEAN_ANOMALY>224.3995</MEAN_ANOMALY></meanElements><tleParameters><EPHEMERIS_TYPE>0</EPHEMERIS_TYPE><CLASSIFICATION_TYPE>U</CLASSIFICATION_TYPE><NORAD_CAT_ID>65153</NORAD_CAT_ID><ELEMENT_SET_NO>999</ELEMENT_SET_NO><REV_AT_EPOCH>437</REV_AT_EPOCH><BSTAR>-.31772023E-1</BSTAR><MEAN_MOTION_DOT>-.770321E-2</MEAN_MOTION_DOT><MEAN_MOTION_DDOT>0</MEAN_MOTION_DDOT></tleParameters></data></segment></body></omm>
<omm id="CCSDS_OMM_VERS" version="2.0">
<header><CREATION_DATE/><ORIGINATOR/></header><body><segment><metadata><OBJECT_NAME>KUIPER-00118</OBJECT_NAME><OBJECT_ID>2025-171Y</OBJECT_ID><CENTER_NAME>EARTH</CENTER_NAME><REF_FRAME>TEME</REF_FRAME><TIME_SYSTEM>UTC</TIME_SYSTEM><MEAN_ELEMENT_THEORY>SGP4</MEAN_ELEMENT_THEORY></metadata><data><meanElements><EPOCH>2025-09-18T22:00:01.999584</EPOCH><MEAN_MOTION>15.21541979</MEAN_MOTION><ECCENTRICITY>.00035681</ECCENTRICITY><INCLINATION>51.8785</INCLINATION><RA_OF_ASC_NODE>220.3254</RA_OF_ASC_NODE><ARG_OF_PERICENTER>278.9773</ARG_OF_PERICENTER><MEAN_ANOMALY>58.7532</MEAN_ANOMALY></meanElements><tleParameters><EPHEMERIS_TYPE>0</EPHEMERIS_TYPE><CLASSIFICATION_TYPE>U</CLASSIFICATION_TYPE><NORAD_CAT_ID>65154</NORAD_CAT_ID><ELEMENT_SET_NO>999</ELEMENT_SET_NO><REV_AT_EPOCH>445</REV_AT_EPOCH><BSTAR>-.17753316E-1</BSTAR><MEAN_MOTION_DOT>-.385194E-2</MEAN_MOTION_DOT><MEAN_MOTION_DDOT>0</MEAN_MOTION_DDOT></tleParameters></data></segment></body></omm>
<omm id="CCSDS_OMM_VERS" version="2.0">
<header><CREATION_DATE/><ORIGINATOR/></header><body><segment><metadata><OBJECT_NAME>KUIPER-00119</OBJECT_NAME><OBJECT_ID>2025-171Z</OBJECT_ID><CENTER_NAME>EARTH</CENTER_NAME><REF_FRAME>TEME</REF_FRAME><TIME_SYSTEM>UTC</TIME_SYSTEM><MEAN_ELEMENT_THEORY>SGP4</MEAN_ELEMENT_THEORY></metadata><data><meanElements><EPOCH>2025-09-18T23:19:17.266368</EPOCH><MEAN_MOTION>15.36537537</MEAN_MOTION><ECCENTRICITY>.00048107</ECCENTRICITY><INCLINATION>51.8754</INCLINATION><RA_OF_ASC_NODE>219.1413</RA_OF_ASC_NODE><ARG_OF_PERICENTER>249.5088</ARG_OF_PERICENTER><MEAN_ANOMALY>110.5382</MEAN_ANOMALY></meanElements><tleParameters><EPHEMERIS_TYPE>0</EPHEMERIS_TYPE><CLASSIFICATION_TYPE>U</CLASSIFICATION_TYPE><NORAD_CAT_ID>65155</NORAD_CAT_ID><ELEMENT_SET_NO>999</ELEMENT_SET_NO><REV_AT_EPOCH>715</REV_AT_EPOCH><BSTAR>.12683803E-2</BSTAR><MEAN_MOTION_DOT>.45838E-3</MEAN_MOTION_DOT><MEAN_MOTION_DDOT>0</MEAN_MOTION_DDOT></tleParameters></data></segment></body></omm>
</ndm>
